     3.00           N: GNSS NAV DATA    M: Mixed            RINEX VERSION / TYPE
BNC 2.12            bkg                 20150713 120000 UTC PGM / RUN BY / DATE
                                                            END OF HEADER
S36 2015 07 13 12 51 12 0.000000000000e+00 0.000000000000e+00 9.999000000000e+08
     4.199550000000e+04 0.000000000000e+00 0.000000000000e+00 0.000000000000e+00
     3.749030000000e+03 0.000000000000e+00 0.000000000000e+00 8.192000000000e+03
     3.944800000000e+00 0.000000000000e+00 0.000000000000e+00 1.380000000000e+02
E26 2015 07 13 12 40 00 8.104803273454e-04 4.005187292933e-10 0.000000000000e+00
     9.200000000000e+01-1.061562500000e+02 2.766543809083e-09-2.275598285311e+00
    -4.963949322701e-06 8.164369501173e-05 1.301243901253e-05 5.440619049072e+03
     1.320000000000e+05-5.029141902924e-08 2.834837570364e+00 1.173466444016e-07
     9.623639899573e-01 5.703125000000e+01 2.483688816066e+00-5.282720046494e-09
     2.153661137202e-10 5.170000000000e+02 1.853000000000e+03 0.000000000000e+00
     3.120000000000e+00 0.000000000000e+00 1.210719347000e-08 1.280568540096e-08
     9.999000000000e+08                                                         
S31 2015 07 13 12 51 12 0.000000000000e+00 0.000000000000e+00 9.999000000000e+08
     4.199550000000e+04 0.000000000000e+00 0.000000000000e+00 0.000000000000e+00
     3.749030000000e+03 0.000000000000e+00 0.000000000000e+00 8.192000000000e+03
     3.944800000000e+00 0.000000000000e+00 0.000000000000e+00 1.380000000000e+02
S26 2015 07 13 12 51 28 0.000000000000e+00 0.000000000000e+00 9.999000000000e+08
     3.815900000000e+04 0.000000000000e+00 0.000000000000e+00 0.000000000000e+00
     1.794600000000e+04 0.000000000000e+00 0.000000000000e+00 8.192000000000e+03
     0.000000000000e+00 0.000000000000e+00 0.000000000000e+00 1.820000000000e+02
E19 2015 07 13 12 40 00-1.103361137211e-05-1.065814103640e-12 0.000000000000e+00
     9.200000000000e+01 0.000000000000e+00 3.369783222140e-09-7.634148758653e-02
    -4.265457391739e-07 3.753002965823e-04 0.000000000000e+00 5.440609859467e+03
     1.320000000000e+05 7.450580596924e-09-1.359751317409e+00 9.313225746155e-09
     9.591439741393e-01 1.877500000000e+02-2.510235777487e+00-5.566660445180e-09
    -4.800199947595e-10 5.170000000000e+02 1.853000000000e+03 0.000000000000e+00
     3.120000000000e+00 0.000000000000e+00 9.313225746155e-10 1.164153218269e-09
     9.999000000000e+08                                                         
S27 2015 07 13 12 53 20 1.178123056889e-07-1.455191522837e-11 9.999000000000e+08
     2.418922384000e+04-3.825000000000e-04-1.375000000000e-07 0.000000000000e+00
     3.453774832000e+04-1.010625000000e-03 7.500000000000e-08 4.096000000000e+03
    -1.415200000000e+01-8.640000000000e-04 6.250000000000e-08 2.000000000000e+01
S28 2015 07 13 12 53 20-1.071020960808e-08-1.546140993014e-11 9.999000000000e+08
     5.104100160000e+03 3.000000000000e-05 2.500000000000e-08 0.000000000000e+00
     4.185438648000e+04 2.081250000000e-04-1.250000000000e-08 4.096000000000e+03
    -6.688000000000e+00-4.200000000000e-04 6.250000000000e-08 2.400000000000e+01
S29 2015 07 13 12 53 20-7.357448339462e-08 1.818989403546e-11 9.999000000000e+08
    -3.227723648000e+04 7.337500000000e-04 5.000000000000e-08 0.000000000000e+00
     2.714536560000e+04 1.247500000000e-03 0.000000000000e+00 4.096000000000e+03
    -3.945200000000e+00-1.435200000000e-02 0.000000000000e+00 1.940000000000e+02
S33 2015 07 13 12 53 20 8.847564458847e-08 1.818989403546e-12 9.999000000000e+08
    -5.900464000000e+03-1.633125000000e-03 7.375000000000e-07 0.000000000000e+00
    -4.173570608000e+04 4.993750000000e-03 1.875000000000e-07 1.600000000000e+01
     1.168732800000e+03 1.386560000000e-01-6.312500000000e-06 1.400000000000e+01
S35 2015 07 13 12 53 20 1.164153218269e-08 3.637978807092e-12 9.999000000000e+08
    -2.875604352000e+04-2.406250000000e-04 3.750000000000e-08 0.000000000000e+00
    -3.084192608000e+04 5.025000000000e-04 0.000000000000e+00 2.000000000000e+00
     1.537960000000e+01 1.792000000000e-03-6.250000000000e-08 1.420000000000e+02
S37 2015 07 13 12 53 20-4.386529326439e-07-9.094947017729e-12 9.999000000000e+08
    -3.455603304000e+04 7.531250000000e-04 7.500000000000e-08 0.000000000000e+00
     2.418264736000e+04 1.674375000000e-03 1.250000000000e-08 1.600000000000e+01
    -1.053080000000e+01 7.160000000000e-04 6.250000000000e-08 4.400000000000e+01
S38 2015 07 13 12 53 20-1.164153218269e-08-1.818989403546e-12 9.999000000000e+08
    -1.256099640000e+04 8.162500000000e-04 8.750000000000e-08 0.000000000000e+00
    -4.024515184000e+04 4.156250000000e-04-3.750000000000e-08 2.000000000000e+00
     2.822000000000e+00 1.728000000000e-03 0.000000000000e+00 2.270000000000e+02
S20 2015 07 13 12 53 04 0.000000000000e+00 0.000000000000e+00 9.999000000000e+08
     4.063672000000e+04 0.000000000000e+00 0.000000000000e+00 0.000000000000e+00
    -1.124591600000e+04 0.000000000000e+00 0.000000000000e+00 8.192000000000e+03
     0.000000000000e+00 0.000000000000e+00 0.000000000000e+00 1.990000000000e+02
S26 2015 07 13 12 54 08 0.000000000000e+00 0.000000000000e+00 9.999000000000e+08
     3.815900000000e+04 0.000000000000e+00 0.000000000000e+00 0.000000000000e+00
     1.794600000000e+04 0.000000000000e+00 0.000000000000e+00 8.192000000000e+03
     0.000000000000e+00 0.000000000000e+00 0.000000000000e+00 1.830000000000e+02
S36 2015 07 13 12 54 24 0.000000000000e+00 0.000000000000e+00 9.999000000000e+08
     4.199550000000e+04 0.000000000000e+00 0.000000000000e+00 0.000000000000e+00
     3.749030000000e+03 0.000000000000e+00 0.000000000000e+00 8.192000000000e+03
     3.944800000000e+00 0.000000000000e+00 0.000000000000e+00 1.390000000000e+02
S31 2015 07 13 12 54 24 0.000000000000e+00 0.000000000000e+00 9.999000000000e+08
     4.199550000000e+04 0.000000000000e+00 0.000000000000e+00 0.000000000000e+00
     3.749030000000e+03 0.000000000000e+00 0.000000000000e+00 8.192000000000e+03
     3.944800000000e+00 0.000000000000e+00 0.000000000000e+00 1.390000000000e+02
S20 2015 07 13 12 55 28 0.000000000000e+00 0.000000000000e+00 9.999000000000e+08
     4.063672000000e+04 0.000000000000e+00 0.000000000000e+00 0.000000000000e+00
    -1.124591600000e+04 0.000000000000e+00 0.000000000000e+00 8.192000000000e+03
     0.000000000000e+00 0.000000000000e+00 0.000000000000e+00 2.000000000000e+02
S26 2015 07 13 12 56 48 0.000000000000e+00 0.000000000000e+00 9.999000000000e+08
     3.815900000000e+04 0.000000000000e+00 0.000000000000e+00 0.000000000000e+00
     1.794600000000e+04 0.000000000000e+00 0.000000000000e+00 8.192000000000e+03
     0.000000000000e+00 0.000000000000e+00 0.000000000000e+00 1.840000000000e+02
S37 2015 07 13 12 57 36-4.409812390804e-07-4.547473508865e-12 9.999000000000e+08
    -3.455583776000e+04 7.725000000000e-04 7.500000000000e-08 0.000000000000e+00
     2.418307640000e+04 1.676250000000e-03 0.000000000000e+00 1.600000000000e+01
    -1.034560000000e+01 7.320000000000e-04 6.250000000000e-08 4.500000000000e+01
S27 2015 07 13 12 57 36 1.140870153904e-07-1.909938873723e-11 9.999000000000e+08
     2.418912144000e+04-4.181250000000e-04-1.375000000000e-07 0.000000000000e+00
     3.453749208000e+04-9.943750000000e-04 7.500000000000e-08 4.096000000000e+03
    -1.437120000000e+01-8.400000000000e-04 6.250000000000e-08 2.100000000000e+01
S28 2015 07 13 12 57 36-1.443549990654e-08-1.909938873723e-11 9.999000000000e+08
     5.104108640000e+03 3.687500000000e-05 2.500000000000e-08 0.000000000000e+00
     4.185443936000e+04 2.062500000000e-04-1.250000000000e-08 4.096000000000e+03
    -6.793600000000e+00-4.080000000000e-04 6.250000000000e-08 2.500000000000e+01
S29 2015 07 13 12 57 36-6.891787052155e-08 1.909938873723e-11 9.999000000000e+08
    -3.227704704000e+04 7.475000000000e-04 5.000000000000e-08 0.000000000000e+00
     2.714568496000e+04 1.246250000000e-03 0.000000000000e+00 4.096000000000e+03
    -7.619200000000e+00-1.434400000000e-02 6.250000000000e-08 1.950000000000e+02
S38 2015 07 13 12 57 36-1.210719347000e-08-9.094947017729e-13 9.999000000000e+08
    -1.256078456000e+04 8.387500000000e-04 8.750000000000e-08 0.000000000000e+00
    -4.024504664000e+04 4.050000000000e-04-5.000000000000e-08 2.000000000000e+00
     3.264400000000e+00 1.728000000000e-03 0.000000000000e+00 2.280000000000e+02
S33 2015 07 13 12 57 36 8.894130587578e-08 9.094947017729e-13 9.999000000000e+08
    -5.900857920000e+03-1.445625000000e-03 7.375000000000e-07 0.000000000000e+00
    -4.173442152000e+04 5.042500000000e-03 1.625000000000e-07 1.600000000000e+01
     1.204022000000e+03 1.370400000000e-01-6.500000000000e-06 1.500000000000e+01
S35 2015 07 13 12 57 36 1.257285475731e-08 1.818989403546e-12 9.999000000000e+08
    -2.875610392000e+04-2.300000000000e-04 3.750000000000e-08 0.000000000000e+00
    -3.084179744000e+04 5.025000000000e-04 0.000000000000e+00 2.000000000000e+00
     1.583640000000e+01 1.768000000000e-03-6.250000000000e-08 1.430000000000e+02
S31 2015 07 13 12 57 52 0.000000000000e+00 0.000000000000e+00 9.999000000000e+08
     4.199550000000e+04 0.000000000000e+00 0.000000000000e+00 0.000000000000e+00
     3.749030000000e+03 0.000000000000e+00 0.000000000000e+00 8.192000000000e+03
     3.944800000000e+00 0.000000000000e+00 0.000000000000e+00 1.400000000000e+02
S36 2015 07 13 12 57 52 0.000000000000e+00 0.000000000000e+00 9.999000000000e+08
     4.199550000000e+04 0.000000000000e+00 0.000000000000e+00 0.000000000000e+00
     3.749030000000e+03 0.000000000000e+00 0.000000000000e+00 8.192000000000e+03
     3.944800000000e+00 0.000000000000e+00 0.000000000000e+00 1.400000000000e+02
S20 2015 07 13 12 58 08 0.000000000000e+00 0.000000000000e+00 9.999000000000e+08
     4.063672000000e+04 0.000000000000e+00 0.000000000000e+00 0.000000000000e+00
    -1.124591600000e+04 0.000000000000e+00 0.000000000000e+00 8.192000000000e+03
     0.000000000000e+00 0.000000000000e+00 0.000000000000e+00 2.010000000000e+02
